[{"OBJECT_NAME":"KUIPER-00151","OBJECT_ID":"2025-217K","EPOCH":"2026-03-09T07:29:03.997248","MEAN_MOTION":14.79857221,"ECCENTRICITY":9.771e-5,"INCLINATION":51.9032,"RA_OF_ASC_NODE":44.7716,"ARG_OF_PERICENTER":55.0617,"MEAN_ANOMALY":305.0437,"EPHEMERIS_TYPE":0,"CLASSIFICATION_TYPE":"U","NORAD_CAT_ID":65771,"ELEMENT_SET_NO":999,"REV_AT_EPOCH":2482,"BSTAR":-0.0010970142,"MEAN_MOTION_DOT":-8.558e-5,"MEAN_MOTION_DDOT":0},{"OBJECT_NAME":"SL-14 R\/B","OBJECT_ID":"1991-039B","EPOCH":"2026-03-09T15:48:43.025184","MEAN_MOTION":14.81841975,"ECCENTRICITY":0.00211429,"INCLINATION":82.523,"RA_OF_ASC_NODE":136.5072,"ARG_OF_PERICENTER":162.3905,"MEAN_ANOMALY":197.8047,"EPHEMERIS_TYPE":0,"CLASSIFICATION_TYPE":"U","NORAD_CAT_ID":21398,"ELEMENT_SET_NO":999,"REV_AT_EPOCH":85439,"BSTAR":6.0636888e-5,"MEAN_MOTION_DOT":5.04e-6,"MEAN_MOTION_DDOT":0}]
